SL-3 R/B                
1 13403U 82079B   25357.91087204  .00005776  00000+0  23706-3 0  9995
2 13403  81.1478 282.4924 0026932  63.1757 297.2225 15.23712827366152
SL-14 R/B               
1 13553U 82092B   25357.12547881  .00000451  00000+0  47949-4 0  9992
2 13553  82.5673 212.9989 0019968 191.1317 292.6966 14.86565135317551
SL-3 R/B                
1 13819U 83010B   25357.53284022  .00014434  00000+0  31712-3 0  9994
2 13819  81.1045  95.4425 0016601 312.8222  47.1625 15.43738059346188
SL-3 R/B                
1 14208U 83075B   25357.92553418  .00010786  00000+0  30376-3 0  9990
2 14208  97.6109 354.7857 0023913 136.6686 223.6443 15.36351817318514
COSMOS 1536             
1 14699U 84013A   25357.91303755  .00006220  00000+0  26527-3 0  9994
2 14699  82.5444 183.0824 0014409 184.4112 175.7000 15.22642533261083
SL-14 R/B               
1 14820U 84027B   25357.86896580  .00000519  00000+0  56655-4 0  9993
2 14820  82.5422 316.1191 0016821 220.8077 139.1881 14.85885749236377
SL-8 R/B                
1 15483U 85006B   25357.47588600  .00000266  00000+0  97016-4 0  9990
2 15483  74.0460  41.3822 0019162 331.3281 135.5466 14.37727366143075
SL-12 R/B(2)            
1 15772U 85042D   25357.93427649  .00000029  00000+0  34520-4 0  9995
2 15772  71.1072 247.7708 0037328 245.0216 192.2432 14.21955213103628
SL-14 R/B               
1 15945U 85069B   25357.74220038  .00000527  00000+0  56804-4 0  9990
2 15945  82.5273  96.3600 0020324  84.6821 275.6714 14.86336458161555
SL-16 R/B               
1 16182U 85097B   25357.93800814 -.00000154  00000+0 -53437-4 0  9999
2 16182  71.0037 300.0275 0007418 352.8896  76.3726 14.16587647 76504
SL-14 R/B               
1 16496U 86006B   25357.94009301  .00000597  00000+0  60726-4 0  9999
2 16496  82.5269 331.0118 0077153 162.6322 197.7563 14.86685094137956
COSMOS 1743             
1 16719U 86034A   25357.93431265  .00030579  00000+0  49277-3 0  9995
2 16719  82.5353 152.9586 0004997 205.9648 154.1355 15.52767714168476
