CCSDS_OMM_VERS = 2.0
CREATION_DATE  = 
ORIGINATOR     = 

OBJECT_NAME    = SL-3 R/B
OBJECT_ID      = 1982-079B
CENTER_NAME    = EARTH
REF_FRAME      = TEME
TIME_SYSTEM    = UTC
MEAN_ELEMENT_THEORY = SGP/SGP4

EPOCH          = 2025-12-23T21:51:39.344256
MEAN_MOTION    = 15.23712827
ECCENTRICITY   = .00269328
INCLINATION    = 81.1478
RA_OF_ASC_NODE = 282.4924
ARG_OF_PERICENTER = 63.1757
MEAN_ANOMALY   = 297.2225

EPHEMERIS_TYPE = 0
CLASSIFICATION_TYPE = U
NORAD_CAT_ID   = 13403
ELEMENT_SET_NO = 999
REV_AT_EPOCH   = 36615
BSTAR          = .23705724E-3
MEAN_MOTION_DOT = .5776E-4
MEAN_MOTION_DDOT = 0

CCSDS_OMM_VERS = 2.0
CREATION_DATE  = 
ORIGINATOR     = 

OBJECT_NAME    = SL-14 R/B
OBJECT_ID      = 1982-092B
CENTER_NAME    = EARTH
REF_FRAME      = TEME
TIME_SYSTEM    = UTC
MEAN_ELEMENT_THEORY = SGP/SGP4

EPOCH          = 2025-12-23T03:00:41.369184
MEAN_MOTION    = 14.86565135
ECCENTRICITY   = .00199684
INCLINATION    = 82.5673
RA_OF_ASC_NODE = 212.9989
ARG_OF_PERICENTER = 191.1317
MEAN_ANOMALY   = 292.6966

EPHEMERIS_TYPE = 0
CLASSIFICATION_TYPE = U
NORAD_CAT_ID   = 13553
ELEMENT_SET_NO = 999
REV_AT_EPOCH   = 31755
BSTAR          = .47948963E-4
MEAN_MOTION_DOT = .451E-5
MEAN_MOTION_DDOT = 0

CCSDS_OMM_VERS = 2.0
CREATION_DATE  = 
ORIGINATOR     = 

OBJECT_NAME    = SL-3 R/B
OBJECT_ID      = 1983-010B
CENTER_NAME    = EARTH
REF_FRAME      = TEME
TIME_SYSTEM    = UTC
MEAN_ELEMENT_THEORY = SGP/SGP4

EPOCH          = 2025-12-23T12:47:17.395008
MEAN_MOTION    = 15.43738059
ECCENTRICITY   = .00166018
INCLINATION    = 81.1045
RA_OF_ASC_NODE = 95.4425
ARG_OF_PERICENTER = 312.8222
MEAN_ANOMALY   = 47.1625

EPHEMERIS_TYPE = 0
CLASSIFICATION_TYPE = U
NORAD_CAT_ID   = 13819
ELEMENT_SET_NO = 999
REV_AT_EPOCH   = 34618
BSTAR          = .31711858E-3
MEAN_MOTION_DOT = .14434E-3
MEAN_MOTION_DDOT = 0

CCSDS_OMM_VERS = 2.0
CREATION_DATE  = 
ORIGINATOR     = 

OBJECT_NAME    = SL-3 R/B
OBJECT_ID      = 1983-075B
CENTER_NAME    = EARTH
REF_FRAME      = TEME
TIME_SYSTEM    = UTC
MEAN_ELEMENT_THEORY = SGP/SGP4

EPOCH          = 2025-12-23T22:12:46.153152
MEAN_MOTION    = 15.36351817
ECCENTRICITY   = .0023913
INCLINATION    = 97.6109
RA_OF_ASC_NODE = 354.7857
ARG_OF_PERICENTER = 136.6686
MEAN_ANOMALY   = 223.6443

EPHEMERIS_TYPE = 0
CLASSIFICATION_TYPE = U
NORAD_CAT_ID   = 14208
ELEMENT_SET_NO = 999
REV_AT_EPOCH   = 31851
BSTAR          = .30375831E-3
MEAN_MOTION_DOT = .10786E-3
MEAN_MOTION_DDOT = 0

CCSDS_OMM_VERS = 2.0
CREATION_DATE  = 
ORIGINATOR     = 

OBJECT_NAME    = COSMOS 1536
OBJECT_ID      = 1984-013A
CENTER_NAME    = EARTH
REF_FRAME      = TEME
TIME_SYSTEM    = UTC
MEAN_ELEMENT_THEORY = SGP/SGP4

EPOCH          = 2025-12-23T21:54:46.444320
MEAN_MOTION    = 15.22642533
ECCENTRICITY   = .00144091
INCLINATION    = 82.5444
RA_OF_ASC_NODE = 183.0824
ARG_OF_PERICENTER = 184.4112
MEAN_ANOMALY   = 175.7000

EPHEMERIS_TYPE = 0
CLASSIFICATION_TYPE = U
NORAD_CAT_ID   = 14699
ELEMENT_SET_NO = 999
REV_AT_EPOCH   = 26108
BSTAR          = .26527088E-3
MEAN_MOTION_DOT = .622E-4
MEAN_MOTION_DDOT = 0

CCSDS_OMM_VERS = 2.0
CREATION_DATE  = 
ORIGINATOR     = 

OBJECT_NAME    = SL-14 R/B
OBJECT_ID      = 1984-027B
CENTER_NAME    = EARTH
REF_FRAME      = TEME
TIME_SYSTEM    = UTC
MEAN_ELEMENT_THEORY = SGP/SGP4

EPOCH          = 2025-12-23T20:51:18.645120
MEAN_MOTION    = 14.85885749
ECCENTRICITY   = .00168219
INCLINATION    = 82.5422
RA_OF_ASC_NODE = 316.1191
ARG_OF_PERICENTER = 220.8077
MEAN_ANOMALY   = 139.1881

EPHEMERIS_TYPE = 0
CLASSIFICATION_TYPE = U
NORAD_CAT_ID   = 14820
ELEMENT_SET_NO = 999
REV_AT_EPOCH   = 23637
BSTAR          = .56655255E-4
MEAN_MOTION_DOT = .519E-5
MEAN_MOTION_DDOT = 0

CCSDS_OMM_VERS = 2.0
CREATION_DATE  = 
ORIGINATOR     = 

OBJECT_NAME    = SL-8 R/B
OBJECT_ID      = 1985-006B
CENTER_NAME    = EARTH
REF_FRAME      = TEME
TIME_SYSTEM    = UTC
MEAN_ELEMENT_THEORY = SGP/SGP4

EPOCH          = 2025-12-23T11:25:16.550400
MEAN_MOTION    = 14.37727366
ECCENTRICITY   = .00191626
INCLINATION    = 74.0460
RA_OF_ASC_NODE = 41.3822
ARG_OF_PERICENTER = 331.3281
MEAN_ANOMALY   = 135.5466

EPHEMERIS_TYPE = 0
CLASSIFICATION_TYPE = U
NORAD_CAT_ID   = 15483
ELEMENT_SET_NO = 999
REV_AT_EPOCH   = 14307
BSTAR          = .97015525E-4
MEAN_MOTION_DOT = .266E-5
MEAN_MOTION_DDOT = 0

CCSDS_OMM_VERS = 2.0
CREATION_DATE  = 
ORIGINATOR     = 

OBJECT_NAME    = SL-12 R/B(2)
OBJECT_ID      = 1985-042D
CENTER_NAME    = EARTH
REF_FRAME      = TEME
TIME_SYSTEM    = UTC
MEAN_ELEMENT_THEORY = SGP/SGP4

EPOCH          = 2025-12-23T22:25:21.488736
MEAN_MOTION    = 14.21955213
ECCENTRICITY   = .00373289
INCLINATION    = 71.1072
RA_OF_ASC_NODE = 247.7708
ARG_OF_PERICENTER = 245.0216
MEAN_ANOMALY   = 192.2432

EPHEMERIS_TYPE = 0
CLASSIFICATION_TYPE = U
NORAD_CAT_ID   = 15772
ELEMENT_SET_NO = 999
REV_AT_EPOCH   = 10362
BSTAR          = .34519613E-4
MEAN_MOTION_DOT = .29E-6
MEAN_MOTION_DDOT = 0

CCSDS_OMM_VERS = 2.0
CREATION_DATE  = 
ORIGINATOR     = 

OBJECT_NAME    = SL-14 R/B
OBJECT_ID      = 1985-069B
CENTER_NAME    = EARTH
REF_FRAME      = TEME
TIME_SYSTEM    = UTC
MEAN_ELEMENT_THEORY = SGP/SGP4

EPOCH          = 2025-12-23T17:48:46.112832
MEAN_MOTION    = 14.86336458
ECCENTRICITY   = .00203249
INCLINATION    = 82.5273
RA_OF_ASC_NODE = 96.3600
ARG_OF_PERICENTER = 84.6821
MEAN_ANOMALY   = 275.6714

EPHEMERIS_TYPE = 0
CLASSIFICATION_TYPE = U
NORAD_CAT_ID   = 15945
ELEMENT_SET_NO = 999
REV_AT_EPOCH   = 16155
BSTAR          = .56803649E-4
MEAN_MOTION_DOT = .527E-5
MEAN_MOTION_DDOT = 0

CCSDS_OMM_VERS = 2.0
CREATION_DATE  = 
ORIGINATOR     = 

OBJECT_NAME    = SL-16 R/B
OBJECT_ID      = 1985-097B
CENTER_NAME    = EARTH
REF_FRAME      = TEME
TIME_SYSTEM    = UTC
MEAN_ELEMENT_THEORY = SGP/SGP4

EPOCH          = 2025-12-23T22:30:43.903296
MEAN_MOTION    = 14.16587647
ECCENTRICITY   = .00074185
INCLINATION    = 71.0037
RA_OF_ASC_NODE = 300.0275
ARG_OF_PERICENTER = 352.8896
MEAN_ANOMALY   = 76.3726

EPHEMERIS_TYPE = 0
CLASSIFICATION_TYPE = U
NORAD_CAT_ID   = 16182
ELEMENT_SET_NO = 999
REV_AT_EPOCH   = 7650
BSTAR          = -.53437106E-4
MEAN_MOTION_DOT = -.154E-5
MEAN_MOTION_DDOT = 0

CCSDS_OMM_VERS = 2.0
CREATION_DATE  = 
ORIGINATOR     = 

OBJECT_NAME    = SL-14 R/B
OBJECT_ID      = 1986-006B
CENTER_NAME    = EARTH
REF_FRAME      = TEME
TIME_SYSTEM    = UTC
MEAN_ELEMENT_THEORY = SGP/SGP4

EPOCH          = 2025-12-23T22:33:44.036064
MEAN_MOTION    = 14.86685094
ECCENTRICITY   = .00771532
INCLINATION    = 82.5269
RA_OF_ASC_NODE = 331.0118
ARG_OF_PERICENTER = 162.6322
MEAN_ANOMALY   = 197.7563

EPHEMERIS_TYPE = 0
CLASSIFICATION_TYPE = U
NORAD_CAT_ID   = 16496
ELEMENT_SET_NO = 999
REV_AT_EPOCH   = 13795
BSTAR          = .60726449E-4
MEAN_MOTION_DOT = .597E-5
MEAN_MOTION_DDOT = 0

CCSDS_OMM_VERS = 2.0
CREATION_DATE  = 
ORIGINATOR     = 

OBJECT_NAME    = COSMOS 1743
OBJECT_ID      = 1986-034A
CENTER_NAME    = EARTH
REF_FRAME      = TEME
TIME_SYSTEM    = UTC
MEAN_ELEMENT_THEORY = SGP/SGP4

EPOCH          = 2025-12-23T22:25:24.612960
MEAN_MOTION    = 15.52767714
ECCENTRICITY   = .00049974
INCLINATION    = 82.5353
RA_OF_ASC_NODE = 152.9586
ARG_OF_PERICENTER = 205.9648
MEAN_ANOMALY   = 154.1355

EPHEMERIS_TYPE = 0
CLASSIFICATION_TYPE = U
NORAD_CAT_ID   = 16719
ELEMENT_SET_NO = 999
REV_AT_EPOCH   = 16847
BSTAR          = .4927741E-3
MEAN_MOTION_DOT = .30579E-3
MEAN_MOTION_DDOT = 0

